[{"OBJECT_NAME":"CHUANGXIN 1-02 (CX-1-02)","OBJECT_ID":"2008-056B","EPOCH":"2026-03-09T22:48:06.707232","MEAN_MOTION":14.30130448,"ECCENTRICITY":0.00153994,"INCLINATION":98.625,"RA_OF_ASC_NODE":96.1592,"ARG_OF_PERICENTER":73.2963,"MEAN_ANOMALY":286.9908,"EPHEMERIS_TYPE":0,"CLASSIFICATION_TYPE":"U","NORAD_CAT_ID":33434,"ELEMENT_SET_NO":999,"REV_AT_EPOCH":90443,"BSTAR":1.1632331e-5,"MEAN_MOTION_DOT":-1.4e-7,"MEAN_MOTION_DDOT":0},{"OBJECT_NAME":"DELTA 1 DEB","OBJECT_ID":"1978-026J","EPOCH":"2026-03-09T15:23:55.601664","MEAN_MOTION":14.33783254,"ECCENTRICITY":0.0068144,"INCLINATION":98.7146,"RA_OF_ASC_NODE":93.5053,"ARG_OF_PERICENTER":16.7088,"MEAN_ANOMALY":102.7076,"EPHEMERIS_TYPE":0,"CLASSIFICATION_TYPE":"U","NORAD_CAT_ID":12169,"ELEMENT_SET_NO":999,"REV_AT_EPOCH":34603,"BSTAR":0.00029038,"MEAN_MOTION_DOT":7.83e-6,"MEAN_MOTION_DDOT":0}]
